NORAD_CAT_ID,OBJECT_NAME,OBJECT_TYPE,EPOCH,MEAN_MOTION,ECCENTRICITY,INCLINATION,RA_OF_ASC_NODE,ARG_OF_PERICENTER,MEAN_ANOMALY,BSTAR,MEAN_MOTION_DOT,MEAN_MOTION_DDOT,TLE_LINE0,TLE_LINE1,TLE_LINE2,SEMIMAJOR_AXIS,PERIOD,APOGEE,PERIGEE,DECAYED
53275.0,STARLINK-4179,PAYLOAD,2024-03-09 09:29:18,15.08853254,0.0001826,53.2171,222.54,92.5116,267.6085,0.00017352,2.476e-05,0.0,0 STARLINK-4179,1 53275U 22086AK  24069.39535717  .00002476  00000-0  17352-3 0  9991,2 53275  53.2171 222.5400 0001826  92.5116 267.6085 15.08853254 90946,6917.84,95.437,540.968,538.442,0.0
53275.0,STARLINK-4179,PAYLOAD,2024-03-09 19:01:37,15.08845413,0.0001468,53.2166,220.755,89.9152,270.2008,5.3792e-05,5.68e-06,0.0,0 STARLINK-4179,1 53275U 22086AK  24069.79279787  .00000568  00000-0  53792-4 0  9996,2 53275  53.2166 220.7550 0001468  89.9152 270.2008 15.08845413 90839,6917.864,95.437,540.744,538.713,0.0
53275.0,STARLINK-4179,PAYLOAD,2024-03-10 02:58:33,15.0885064,0.000151,53.2156,219.2672,83.628,276.4884,0.00023798,3.503e-05,0.0,0 STARLINK-4179,1 53275U 22086AK  24070.12399587  .00003503  00000-0  23798-3 0  9990,2 53275  53.2156 219.2672 0001510  83.6280 276.4884 15.08850640 91050,6917.848,95.437,540.757,538.668,0.0
53275.0,STARLINK-4179,PAYLOAD,2024-03-10 18:52:25,15.0883562,0.000221,53.2125,216.2917,77.6842,282.4398,-7.8875e-06,-4.14e-06,0.0,0 STARLINK-4179,1 53275U 22086AK  24070.78640301 -.00000414  00000-0 -78875-5 0  9993,2 53275  53.2125 216.2917 0002210  77.6842 282.4398 15.08835620 90989,6917.894,95.438,541.288,538.23,0.0
53275.0,STARLINK-4179,PAYLOAD,2024-03-11 02:49:20,15.0884522,0.0001137,53.2164,214.807,84.5336,275.5786,0.0001188,1.604e-05,0.0,0 STARLINK-4179,1 53275U 22086AK  24071.11759692  .00001604  00000-0  11880-3 0  9996,2 53275  53.2164 214.8070 0001137  84.5336 275.5786 15.08845220 91036,6917.864,95.437,540.516,538.943,0.0
53275.0,STARLINK-4179,PAYLOAD,2024-03-11 18:43:12,15.08836398,0.0001436,53.2137,211.8311,92.2834,267.8322,5.1719e-05,5.35e-06,0.0,0 STARLINK-4179,1 53275U 22086AK  24071.78000316  .00000535  00000-0  51719-4 0  9999,2 53275  53.2137 211.8311 0001436  92.2834 267.8322 15.08836398 91139,6917.891,95.438,540.75,538.763,0.0
53275.0,STARLINK-4179,PAYLOAD,2024-03-12 15:23:13,15.08842255,0.0001594,53.213,207.9664,89.8455,270.272,0.00021496,3.135e-05,0.0,0 STARLINK-4179,1 53275U 22086AK  24072.64112393  .00003135  00000-0  21496-3 0  9991,2 53275  53.2130 207.9664 0001594  89.8455 270.2720 15.08842255 91437,6917.873,95.437,540.841,538.636,0.0
53275.0,STARLINK-4179,PAYLOAD,2024-03-13 02:30:54,15.08846959,0.0001485,53.2134,205.8853,89.2871,270.8292,0.0001424,1.979e-05,0.0,0 STARLINK-4179,1 53275U 22086AK  24073.10480139  .00001979  00000-0  14240-3 0  9992,2 53275  53.2134 205.8853 0001485  89.2871 270.8292 15.08846959 91337,6917.859,95.437,540.751,538.697,0.0
53275.0,STARLINK-4179,PAYLOAD,2024-03-13 12:03:14,15.08836602,0.000173,53.2167,204.0991,112.1542,247.9634,0.00042796,6.529e-05,0.0,0 STARLINK-4179,1 53275U 22086AK  24073.50224838  .00006529  00000-0  42796-3 0  9991,2 53275  53.2167 204.0991 0001730 112.1542 247.9634 15.08836602 91396,6917.891,95.438,540.953,538.559,0.0
53275.0,STARLINK-4179,PAYLOAD,2024-03-13 18:24:46,15.08842671,0.000178,53.2166,202.91,110.8615,249.2568,0.00016427,2.327e-05,0.0,0 STARLINK-4179,1 53275U 22086AK  24073.76720448  .00002327  00000-0  16427-3 0  9991,2 53275  53.2166 202.9100 0001780 110.8615 249.2568 15.08842671 91603,6917.872,95.437,540.969,538.506,0.0
53275.0,STARLINK-4179,PAYLOAD,2024-03-14 11:54:00,15.08842932,0.0001798,53.216,199.6385,111.598,248.5204,0.00012571,1.713e-05,0.0,0 STARLINK-4179,1 53275U 22086AK  24074.49584385  .00001713  00000-0  12571-3 0  9994,2 53275  53.2160 199.6385 0001798 111.5980 248.5204 15.08842932 91717,6917.871,95.437,540.98,538.493,0.0
53275.0,STARLINK-4179,PAYLOAD,2024-03-15 11:44:48,15.08836975,0.0001652,53.2159,195.1768,115.2308,244.8855,5.0784e-05,5.2e-06,0.0,0 STARLINK-4179,1 53275U 22086AK  24075.48944654  .00000520  00000-0  50784-4 0  9997,2 53275  53.2159 195.1768 0001652 115.2308 244.8855 15.08836975 91693,6917.89,95.438,540.897,538.612,0.0
53275.0,STARLINK-4179,PAYLOAD,2024-03-16 11:35:35,15.08834524,0.0001325,53.2164,190.719,90.9647,269.1497,8.0399e-05,9.92e-06,0.0,0 STARLINK-4179,1 53275U 22086AK  24076.48305308  .00000992  00000-0  80399-4 0  9993,2 53275  53.2164 190.7190 0001325  90.9647 269.1497 15.08834524 91848,6917.897,95.438,540.679,538.846,0.0
53275.0,STARLINK-4179,PAYLOAD,2024-03-16 14:46:22,15.08835462,0.0001412,53.2168,190.1269,97.0988,263.0164,7.0941e-05,8.41e-06,0.0,0 STARLINK-4179,1 53275U 22086AK  24076.61553293  .00000841  00000-0  70941-4 0  9991,2 53275  53.2168 190.1269 0001412  97.0988 263.0164 15.08835462 92034,6917.894,95.438,540.736,538.782,0.0
53275.0,STARLINK-4179,PAYLOAD,2024-03-17 13:01:45,15.08837136,0.0001413,53.2173,185.964,94.2985,265.8169,0.0001236,1.68e-05,0.0,0 STARLINK-4179,1 53275U 22086AK  24077.54289313  .00001680  00000-0  12360-3 0  9995,2 53275  53.2173 185.9640 0001413  94.2985 265.8169 15.08837136 92004,6917.889,95.438,540.732,538.777,0.0
53275.0,STARLINK-4179,PAYLOAD,2024-03-17 14:37:09,15.08838286,0.0001365,53.2168,185.6664,90.6344,269.4804,0.00013395,1.844e-05,0.0,0 STARLINK-4179,1 53275U 22086AK  24077.60913251  .00001844  00000-0  13395-3 0  9998,2 53275  53.2168 185.6664 0001365  90.6344 269.4804 15.08838286 92188,6917.886,95.438,540.695,538.806,0.0
53275.0,STARLINK-4179,PAYLOAD,2024-03-18 11:17:09,15.08841398,0.0001463,53.2174,181.7996,84.6462,275.4697,0.00013206,1.814e-05,0.0,0 STARLINK-4179,1 53275U 22086AK  24078.47025164  .00001814  00000-0  13206-3 0  9999,2 53275  53.2174 181.7996 0001463  84.6462 275.4697 15.08841398 92313,6917.876,95.437,540.753,538.729,0.0
53275.0,STARLINK-4179,PAYLOAD,2024-03-19 11:07:56,15.08846829,0.0001319,53.2172,177.3388,84.4922,275.6221,9.1761e-05,1.173e-05,0.0,0 STARLINK-4179,1 53275U 22086AK  24079.46384875  .00001173  00000-0  91761-4 0  9997,2 53275  53.2172 177.3388 0001319  84.4922 275.6221 15.08846829 92461,6917.86,95.437,540.637,538.812,0.0
53275.0,STARLINK-4179,PAYLOAD,2024-03-19 14:18:42,15.088475,0.0001361,53.2178,176.7445,88.2526,271.8622,9.0223e-05,1.149e-05,0.0,0 STARLINK-4179,1 53275U 22086AK  24079.59632766  .00001149  00000-0  90223-4 0  9991,2 53275  53.2178 176.7445 0001361  88.2526 271.8622 15.08847500 92317,6917.857,95.437,540.664,538.781,0.0
53275.0,STARLINK-4179,PAYLOAD,2024-03-20 10:58:43,15.08839776,0.0001492,53.2171,172.8776,106.9142,253.2013,3.068e-05,2e-06,0.0,0 STARLINK-4179,1 53275U 22086AK  24080.45745203  .00000200  00000-0  30680-4 0  9997,2 53275  53.2171 172.8776 0001492 106.9142 253.2013 15.08839776 92449,6917.881,95.438,540.778,538.714,0.0
53275.0,STARLINK-4179,PAYLOAD,2024-03-20 12:34:07,15.08840532,0.0001521,53.2175,172.5808,98.1137,262.0028,3.4857e-05,2.67e-06,0.0,0 STARLINK-4179,1 53275U 22086AK  24080.52369221  .00000267  00000-0  34857-4 0  9990,2 53275  53.2175 172.5808 0001521  98.1137 262.0028 15.08840532 92621,6917.879,95.438,540.796,538.692,0.0
53275.0,STARLINK-4179,PAYLOAD,2024-03-21 12:24:54,15.08819735,0.0001291,53.2173,168.1174,105.4014,254.7121,-7.4899e-05,-1.479e-05,0.0,0 STARLINK-4179,1 53275U 22086AK  24081.51730044 -.00001479  00000-0 -74899-4 0  9993,2 53275  53.2173 168.1174 0001291 105.4014 254.7121 15.08819735 92607,6917.942,95.439,540.7,538.914,0.0
53275.0,STARLINK-4179,PAYLOAD,2024-03-21 15:35:40,15.08823345,0.0001275,53.2175,167.5226,105.374,254.7393,-3.836e-05,-8.98e-06,0.0,0 STARLINK-4179,1 53275U 22086AK  24081.64977884 -.00000898  00000-0 -38360-4 0  9999,2 53275  53.2175 167.5226 0001275 105.3740 254.7393 15.08823345 92790,6917.931,95.439,540.678,538.914,0.0
53275.0,STARLINK-4179,PAYLOAD,2024-03-22 12:15:40,15.08850635,0.0001216,53.2173,163.6569,94.7809,265.3322,0.00016665,2.366e-05,0.0,0 STARLINK-4179,1 53275U 22086AK  24082.51088220  .00002366  00000-0  16665-3 0  9996,2 53275  53.2173 163.6569 0001216  94.7809 265.3322 15.08850635 92755,6917.848,95.437,540.554,538.872,0.0
53275.0,STARLINK-4179,PAYLOAD,2024-03-23 10:31:04,15.08831521,0.0001157,53.2168,159.4994,98.0018,262.1105,-0.00049987,-8.232e-05,0.0,0 STARLINK-4179,1 53275U 22086AK  24083.43824958 -.00008232  00000-0 -49987-3 0  9997,2 53275  53.2168 159.4994 0001157  98.0018 262.1105 15.08831521 92899,6917.906,95.438,540.572,538.971,0.0
53275.0,STARLINK-4179,PAYLOAD,2024-03-24 11:57:15,15.0884764,0.0001336,53.217,154.7445,95.6036,264.5108,0.0003232,4.861e-05,0.0,0 STARLINK-4179,1 53275U 22086AK  24084.49809096  .00004861  00000-0  32320-3 0  9995,2 53275  53.2170 154.7445 0001336  95.6036 264.5108 15.08847640 93050,6917.857,95.437,540.646,538.798,0.0
53275.0,STARLINK-4179,PAYLOAD,2024-03-24 21:29:32,15.0888087,0.0001127,53.2179,152.9557,100.5395,259.5724,0.0010088,0.00015821,0.0,0 STARLINK-4179,1 53275U 22086AK  24084.89551694  .00015821  00000-0  10088-2 0  9991,2 53275  53.2179 152.9557 0001127 100.5395 259.5724 15.08880870 93112,6917.755,95.435,540.4,538.841,0.0
53275.0,STARLINK-4179,PAYLOAD,2024-03-25 03:51:06,15.08850292,0.000344,53.2163,151.7699,87.0299,273.1087,0.00048242,7.4e-05,0.0,0 STARLINK-4179,1 53275U 22086AK  24085.16049472  .00007400  00000-0  48242-3 0  9996,2 53275  53.2163 151.7699 0003440  87.0299 273.1087 15.08850292 93154,6917.849,95.437,542.094,537.334,0.0
53275.0,STARLINK-4179,PAYLOAD,2024-03-25 11:48:02,15.08840685,0.0001486,53.2161,150.2818,90.7865,269.3297,0.00024548,3.621e-05,0.0,0 STARLINK-4179,1 53275U 22086AK  24085.49169697  .00003621  00000-0  24548-3 0  9998,2 53275  53.2161 150.2818 0001486  90.7865 269.3297 15.08840685 93208,6917.878,95.438,540.771,538.715,0.0
53275.0,STARLINK-4179,PAYLOAD,2024-03-25 21:20:20,15.08850947,0.0001374,53.2155,148.4942,80.032,280.0827,0.00051536,7.926e-05,0.0,0 STARLINK-4179,1 53275U 22086AK  24085.88913160  .00007926  00000-0  51536-3 0  9992,2 53275  53.2155 148.4942 0001374  80.0320 280.0827 15.08850947 93438,6917.847,95.437,540.662,538.761,0.0
